[{"OBJECT_NAME":"HULIANWANG DIGUI-65","OBJECT_ID":"2025-174H","EPOCH":"2026-03-07T06:16:06.225024","MEAN_MOTION":13.24422473,"ECCENTRICITY":0.00012411,"INCLINATION":86.484,"RA_OF_ASC_NODE":286.3362,"ARG_OF_PERICENTER":90.1112,"MEAN_ANOMALY":270.0164,"EPHEMERIS_TYPE":0,"CLASSIFICATION_TYPE":"U","NORAD_CAT_ID":65171,"ELEMENT_SET_NO":999,"REV_AT_EPOCH":2729,"BSTAR":9.8287616e-5,"MEAN_MOTION_DOT":5.7e-7,"MEAN_MOTION_DDOT":0},{"OBJECT_NAME":"HULIANWANG DIGUI-66","OBJECT_ID":"2025-174J","EPOCH":"2026-03-07T06:05:15.709056","MEAN_MOTION":13.2442206,"ECCENTRICITY":0.00012821,"INCLINATION":86.4875,"RA_OF_ASC_NODE":286.4055,"ARG_OF_PERICENTER":91.8082,"MEAN_ANOMALY":268.3199,"EPHEMERIS_TYPE":0,"CLASSIFICATION_TYPE":"U","NORAD_CAT_ID":65172,"ELEMENT_SET_NO":999,"REV_AT_EPOCH":2729,"BSTAR":0.00010135021,"MEAN_MOTION_DOT":5.8e-7,"MEAN_MOTION_DDOT":0},{"OBJECT_NAME":"HULIANWANG DIGUI-67","OBJECT_ID":"2025-174K","EPOCH":"2026-03-07T06:27:03.906144","MEAN_MOTION":13.24421756,"ECCENTRICITY":0.00012741,"INCLINATION":86.4887,"RA_OF_ASC_NODE":286.4342,"ARG_OF_PERICENTER":90.296,"MEAN_ANOMALY":269.832,"EPHEMERIS_TYPE":0,"CLASSIFICATION_TYPE":"U","NORAD_CAT_ID":65173,"ELEMENT_SET_NO":999,"REV_AT_EPOCH":2726,"BSTAR":8.0154931e-5,"MEAN_MOTION_DOT":4.9e-7,"MEAN_MOTION_DDOT":0},{"OBJECT_NAME":"HULIANWANG DIGUI-68","OBJECT_ID":"2025-178A","EPOCH":"2026-03-07T06:59:29.755968","MEAN_MOTION":13.2442389,"ECCENTRICITY":0.00020234,"INCLINATION":86.4945,"RA_OF_ASC_NODE":47.9048,"ARG_OF_PERICENTER":79.0784,"MEAN_ANOMALY":281.0578,"EPHEMERIS_TYPE":0,"CLASSIFICATION_TYPE":"U","NORAD_CAT_ID":65228,"ELEMENT_SET_NO":999,"REV_AT_EPOCH":2682,"BSTAR":5.2152799e-5,"MEAN_MOTION_DOT":3.7e-7,"MEAN_MOTION_DDOT":0},{"OBJECT_NAME":"HULIANWANG DIGUI-69","OBJECT_ID":"2025-178B","EPOCH":"2026-03-07T06:49:04.652832","MEAN_MOTION":13.2441771,"ECCENTRICITY":0.00019703,"INCLINATION":86.4965,"RA_OF_ASC_NODE":47.9426,"ARG_OF_PERICENTER":80.4108,"MEAN_ANOMALY":279.7249,"EPHEMERIS_TYPE":0,"CLASSIFICATION_TYPE":"U","NORAD_CAT_ID":65229,"ELEMENT_SET_NO":999,"REV_AT_EPOCH":2682,"BSTAR":8.3463006e-5,"MEAN_MOTION_DOT":5.0e-7,"MEAN_MOTION_DDOT":0},{"OBJECT_NAME":"HULIANWANG DIGUI-70","OBJECT_ID":"2025-178C","EPOCH":"2026-03-07T06:38:07.999872","MEAN_MOTION":13.24418708,"ECCENTRICITY":0.00020648,"INCLINATION":86.4904,"RA_OF_ASC_NODE":47.8128,"ARG_OF_PERICENTER":78.8361,"MEAN_ANOMALY":281.3005,"EPHEMERIS_TYPE":0,"CLASSIFICATION_TYPE":"U","NORAD_CAT_ID":65230,"ELEMENT_SET_NO":999,"REV_AT_EPOCH":2682,"BSTAR":0.00010489024,"MEAN_MOTION_DOT":6.0e-7,"MEAN_MOTION_DDOT":0},{"OBJECT_NAME":"HULIANWANG DIGUI-71","OBJECT_ID":"2025-178D","EPOCH":"2026-03-07T06:27:12.999744","MEAN_MOTION":13.24419565,"ECCENTRICITY":0.00020205,"INCLINATION":86.4962,"RA_OF_ASC_NODE":47.9307,"ARG_OF_PERICENTER":80.0628,"MEAN_ANOMALY":280.0735,"EPHEMERIS_TYPE":0,"CLASSIFICATION_TYPE":"U","NORAD_CAT_ID":65231,"ELEMENT_SET_NO":999,"REV_AT_EPOCH":2682,"BSTAR":8.9390979e-5,"MEAN_MOTION_DOT":5.3e-7,"MEAN_MOTION_DDOT":0},{"OBJECT_NAME":"HULIANWANG DIGUI-72","OBJECT_ID":"2025-178E","EPOCH":"2026-03-07T06:16:16.530816","MEAN_MOTION":13.24419984,"ECCENTRICITY":0.00020248,"INCLINATION":86.4945,"RA_OF_ASC_NODE":47.891,"ARG_OF_PERICENTER":81.0901,"MEAN_ANOMALY":279.0462,"EPHEMERIS_TYPE":0,"CLASSIFICATION_TYPE":"U","NORAD_CAT_ID":65232,"ELEMENT_SET_NO":999,"REV_AT_EPOCH":2682,"BSTAR":3.450752e-5,"MEAN_MOTION_DOT":2.9e-7,"MEAN_MOTION_DDOT":0},{"OBJECT_NAME":"HULIANWANG DIGUI-73","OBJECT_ID":"2025-187A","EPOCH":"2026-03-07T06:27:24.483168","MEAN_MOTION":13.29342615,"ECCENTRICITY":0.0001031,"INCLINATION":50.0039,"RA_OF_ASC_NODE":211.4016,"ARG_OF_PERICENTER":145.6247,"MEAN_ANOMALY":214.4692,"EPHEMERIS_TYPE":0,"CLASSIFICATION_TYPE":"U","NORAD_CAT_ID":65305,"ELEMENT_SET_NO":999,"REV_AT_EPOCH":2614,"BSTAR":7.3076558e-5,"MEAN_MOTION_DOT":-9.0e-7,"MEAN_MOTION_DDOT":0},{"OBJECT_NAME":"HULIANWANG DIGUI-74","OBJECT_ID":"2025-187B","EPOCH":"2026-03-07T07:51:34.862976","MEAN_MOTION":13.29343068,"ECCENTRICITY":0.00010343,"INCLINATION":50.0081,"RA_OF_ASC_NODE":211.1118,"ARG_OF_PERICENTER":146.7234,"MEAN_ANOMALY":213.3703,"EPHEMERIS_TYPE":0,"CLASSIFICATION_TYPE":"U","NORAD_CAT_ID":65306,"ELEMENT_SET_NO":999,"REV_AT_EPOCH":2615,"BSTAR":7.9105309e-5,"MEAN_MOTION_DOT":-8.7e-7,"MEAN_MOTION_DDOT":0},{"OBJECT_NAME":"HULIANWANG DIGUI-75","OBJECT_ID":"2025-187C","EPOCH":"2026-03-07T07:27:36.874080","MEAN_MOTION":13.29342101,"ECCENTRICITY":0.00010296,"INCLINATION":50.0073,"RA_OF_ASC_NODE":211.0133,"ARG_OF_PERICENTER":145.1304,"MEAN_ANOMALY":214.9635,"EPHEMERIS_TYPE":0,"CLASSIFICATION_TYPE":"U","NORAD_CAT_ID":65307,"ELEMENT_SET_NO":999,"REV_AT_EPOCH":2615,"BSTAR":0.00010323069,"MEAN_MOTION_DOT":-7.6e-7,"MEAN_MOTION_DDOT":0},{"OBJECT_NAME":"HULIANWANG DIGUI-76","OBJECT_ID":"2025-187D","EPOCH":"2026-03-07T07:03:50.093856","MEAN_MOTION":13.29339466,"ECCENTRICITY":0.00010148,"INCLINATION":49.9997,"RA_OF_ASC_NODE":211.4652,"ARG_OF_PERICENTER":142.8616,"MEAN_ANOMALY":217.2326,"EPHEMERIS_TYPE":0,"CLASSIFICATION_TYPE":"U","NORAD_CAT_ID":65308,"ELEMENT_SET_NO":999,"REV_AT_EPOCH":2614,"BSTAR":9.9615895e-5,"MEAN_MOTION_DOT":-7.8e-7,"MEAN_MOTION_DDOT":0},{"OBJECT_NAME":"HULIANWANG DIGUI-77","OBJECT_ID":"2025-187E","EPOCH":"2026-03-07T06:51:35.430336","MEAN_MOTION":13.29341396,"ECCENTRICITY":0.00010614,"INCLINATION":50.0032,"RA_OF_ASC_NODE":211.4754,"ARG_OF_PERICENTER":144.3489,"MEAN_ANOMALY":215.7454,"EPHEMERIS_TYPE":0,"CLASSIFICATION_TYPE":"U","NORAD_CAT_ID":65309,"ELEMENT_SET_NO":999,"REV_AT_EPOCH":2614,"BSTAR":0.00010440894,"MEAN_MOTION_DOT":-7.6e-7,"MEAN_MOTION_DDOT":0},{"OBJECT_NAME":"HULIANWANG DIGUI-78","OBJECT_ID":"2025-187F","EPOCH":"2026-03-07T07:39:42.053472","MEAN_MOTION":13.29341807,"ECCENTRICITY":0.00010184,"INCLINATION":50.0098,"RA_OF_ASC_NODE":211.0951,"ARG_OF_PERICENTER":146.298,"MEAN_ANOMALY":213.7957,"EPHEMERIS_TYPE":0,"CLASSIFICATION_TYPE":"U","NORAD_CAT_ID":65310,"ELEMENT_SET_NO":999,"REV_AT_EPOCH":2615,"BSTAR":0.00010842104,"MEAN_MOTION_DOT":-7.4e-7,"MEAN_MOTION_DDOT":0},{"OBJECT_NAME":"HULIANWANG DIGUI-79","OBJECT_ID":"2025-187G","EPOCH":"2026-03-07T07:15:25.060032","MEAN_MOTION":13.29343229,"ECCENTRICITY":0.00010213,"INCLINATION":50.0027,"RA_OF_ASC_NODE":211.5533,"ARG_OF_PERICENTER":143.9555,"MEAN_ANOMALY":216.1386,"EPHEMERIS_TYPE":0,"CLASSIFICATION_TYPE":"U","NORAD_CAT_ID":65311,"ELEMENT_SET_NO":999,"REV_AT_EPOCH":2614,"BSTAR":9.1033915e-5,"MEAN_MOTION_DOT":-8.2e-7,"MEAN_MOTION_DDOT":0},{"OBJECT_NAME":"HULIANWANG DIGUI-80","OBJECT_ID":"2025-187H","EPOCH":"2026-03-07T06:39:31.083840","MEAN_MOTION":13.29341487,"ECCENTRICITY":0.00010421,"INCLINATION":50.0018,"RA_OF_ASC_NODE":211.4102,"ARG_OF_PERICENTER":143.4973,"MEAN_ANOMALY":216.597,"EPHEMERIS_TYPE":0,"CLASSIFICATION_TYPE":"U","NORAD_CAT_ID":65312,"ELEMENT_SET_NO":999,"REV_AT_EPOCH":2614,"BSTAR":0.00010345936,"MEAN_MOTION_DOT":-7.6e-7,"MEAN_MOTION_DDOT":0}]
