HULIANWANG DIGUI-65     
1 65171U 25174H   26066.26118316  .00000057  00000+0  98288-4 0  9997
2 65171  86.4840 286.3362 0001241  90.1112 270.0164 13.24422473 27296
HULIANWANG DIGUI-66     
1 65172U 25174J   26066.25365404  .00000058  00000+0  10135-3 0  9994
2 65172  86.4875 286.4055 0001282  91.8082 268.3199 13.24422060 27294
HULIANWANG DIGUI-67     
1 65173U 25174K   26066.26879521  .00000049  00000+0  80155-4 0  9996
2 65173  86.4887 286.4342 0001274  90.2960 269.8320 13.24421756 27266
HULIANWANG DIGUI-68     
1 65228U 25178A   26066.29131662  .00000037  00000+0  52153-4 0  9995
2 65228  86.4945  47.9048 0002023  79.0784 281.0578 13.24423890 26820
HULIANWANG DIGUI-69     
1 65229U 25178B   26066.28408163  .00000050  00000+0  83463-4 0  9991
2 65229  86.4965  47.9426 0001970  80.4108 279.7249 13.24417710 26822
HULIANWANG DIGUI-70     
1 65230U 25178C   26066.27648148  .00000060  00000+0  10489-3 0  9999
2 65230  86.4904  47.8128 0002064  78.8361 281.3005 13.24418708 26829
HULIANWANG DIGUI-71     
1 65231U 25178D   26066.26890046  .00000053  00000+0  89391-4 0  9996
2 65231  86.4962  47.9307 0002020  80.0628 280.0735 13.24419565 26825
HULIANWANG DIGUI-72     
1 65232U 25178E   26066.26130244  .00000029  00000+0  34508-4 0  9997
2 65232  86.4945  47.8910 0002024  81.0901 279.0462 13.24419984 26825
HULIANWANG DIGUI-73     
1 65305U 25187A   26066.26903337 -.00000090  00000+0  73077-4 0  9992
2 65305  50.0039 211.4016 0001031 145.6247 214.4692 13.29342615 26144
HULIANWANG DIGUI-74     
1 65306U 25187B   26066.32748684 -.00000087  00000+0  79105-4 0  9996
2 65306  50.0081 211.1118 0001034 146.7234 213.3703 13.29343068 26158
HULIANWANG DIGUI-75     
1 65307U 25187C   26066.31084345 -.00000076  00000+0  10323-3 0  9997
2 65307  50.0073 211.0133 0001029 145.1304 214.9635 13.29342101 26159
HULIANWANG DIGUI-76     
1 65308U 25187D   26066.29432979 -.00000078  00000+0  99616-4 0  9990
2 65308  49.9997 211.4652 0001014 142.8616 217.2326 13.29339466 26148
HULIANWANG DIGUI-77     
1 65309U 25187E   26066.28582674 -.00000076  00000+0  10441-3 0  9994
2 65309  50.0032 211.4754 0001061 144.3489 215.7454 13.29341396 26142
HULIANWANG DIGUI-78     
1 65310U 25187F   26066.31923673 -.00000074  00000+0  10842-3 0  9991
2 65310  50.0098 211.0951 0001018 146.2980 213.7957 13.29341807 26154
HULIANWANG DIGUI-79     
1 65311U 25187G   26066.30237338 -.00000082  00000+0  91034-4 0  9999
2 65311  50.0027 211.5533 0001021 143.9555 216.1386 13.29343229 26146
HULIANWANG DIGUI-80     
1 65312U 25187H   26066.27744310 -.00000076  00000+0  10346-3 0  9998
2 65312  50.0018 211.4102 0001042 143.4973 216.5970 13.29341487 26147
